{
"type": "FeatureCollection",
"name": "inspector_route",
"crs": { "type": "name", "properties": { "name": "urn:ogc:def:crs:OGC:1.3:CRS84" } },
"features": [
{ "type": "Feature", "properties": { "highway": "unclassified", "length_meters": 10.0, "travel_time_mins": 0.0, "source_type": "PrevisIA (AI Traces)" }, "geometry": { "type": "LineString", "coordinates": [ [ -47.833717, -3.679634 ], [ -47.833717, -3.679544 ] ] } },
{ "type": "Feature", "properties": { "highway": "unclassified", "length_meters": 428.1, "travel_time_mins": 1.0, "source_type": "PrevisIA (AI Traces)" }, "geometry": { "type": "LineString", "coordinates": [ [ -47.834017, -3.683555 ], [ -47.833837, -3.68223 ], [ -47.833802, -3.68148 ], [ -47.833768, -3.680757 ], [ -47.833717, -3.679634 ] ] } },
{ "type": "Feature", "properties": { "highway": "unclassified", "length_meters": 229.0, "travel_time_mins": 0.5, "source_type": "PrevisIA (AI Traces)" }, "geometry": { "type": "LineString", "coordinates": [ [ -47.834017, -3.683555 ], [ -47.834145, -3.683438 ], [ -47.834244, -3.683398 ], [ -47.834349, -3.683352 ], [ -47.834456, -3.683301 ], [ -47.834565, -3.683245 ], [ -47.83462, -3.683205 ], [ -47.834787, -3.683124 ], [ -47.8349, -3.683061 ], [ -47.835017, -3.682999 ], [ -47.835138, -3.682938 ], [ -47.835318, -3.682827 ], [ -47.835397, -3.682828 ], [ -47.835508, -3.682742 ], [ -47.835665, -3.682741 ], [ -47.835833, -3.682675 ] ] } },
{ "type": "Feature", "properties": { "highway": "unclassified", "length_meters": 44.5, "travel_time_mins": 0.1, "source_type": "PrevisIA (AI Traces)" }, "geometry": { "type": "LineString", "coordinates": [ [ -47.836142, -3.683048 ], [ -47.836072, -3.682907 ], [ -47.836031, -3.682825 ], [ -47.835833, -3.682675 ] ] } },
{ "type": "Feature", "properties": { "highway": "unclassified", "length_meters": 314.9, "travel_time_mins": 0.8, "source_type": "PrevisIA (AI Traces)" }, "geometry": { "type": "LineString", "coordinates": [ [ -47.838388, -3.684755 ], [ -47.83825, -3.684591 ], [ -47.838153, -3.684486 ], [ -47.838037, -3.684372 ], [ -47.837904, -3.684253 ], [ -47.837755, -3.684128 ], [ -47.837592, -3.684 ], [ -47.837417, -3.683868 ], [ -47.837231, -3.683733 ], [ -47.837037, -3.683598 ], [ -47.836836, -3.683464 ], [ -47.836633, -3.683335 ], [ -47.836441, -3.683219 ], [ -47.836142, -3.683048 ] ] } },
{ "type": "Feature", "properties": { "highway": "unclassified", "length_meters": 9.9, "travel_time_mins": 0.0, "source_type": "PrevisIA (AI Traces)" }, "geometry": { "type": "LineString", "coordinates": [ [ -47.838388, -3.684844 ], [ -47.838388, -3.684755 ] ] } },
{ "type": "Feature", "properties": { "highway": "unclassified", "length_meters": 10.0, "travel_time_mins": 0.0, "source_type": "PrevisIA (AI Traces)" }, "geometry": { "type": "LineString", "coordinates": [ [ -47.838388, -3.684844 ], [ -47.838478, -3.684844 ] ] } },
{ "type": "Feature", "properties": { "highway": "unclassified", "length_meters": 578.0, "travel_time_mins": 1.4, "source_type": "PrevisIA (AI Traces)" }, "geometry": { "type": "LineString", "coordinates": [ [ -47.84261, -3.687988 ], [ -47.842456, -3.687831 ], [ -47.842346, -3.687725 ], [ -47.842215, -3.687604 ], [ -47.842066, -3.687472 ], [ -47.8419, -3.687331 ], [ -47.841722, -3.687184 ], [ -47.841537, -3.687036 ], [ -47.841347, -3.686886 ], [ -47.841155, -3.686736 ], [ -47.84096, -3.686586 ], [ -47.840765, -3.686435 ], [ -47.840568, -3.686283 ], [ -47.840372, -3.686132 ], [ -47.840177, -3.685982 ], [ -47.839985, -3.685836 ], [ -47.839797, -3.685693 ], [ -47.839613, -3.685556 ], [ -47.839434, -3.685425 ], [ -47.839259, -3.685302 ], [ -47.83909, -3.685187 ], [ -47.838929, -3.685083 ], [ -47.838779, -3.684993 ], [ -47.838649, -3.684923 ], [ -47.838478, -3.684844 ] ] } },
{ "type": "Feature", "properties": { "highway": "unclassified", "length_meters": 90.0, "travel_time_mins": 0.2, "source_type": "PrevisIA (AI Traces)" }, "geometry": { "type": "LineString", "coordinates": [ [ -47.843419, -3.687988 ], [ -47.843101, -3.687992 ], [ -47.842918, -3.687992 ], [ -47.84261, -3.687988 ] ] } },
{ "type": "Feature", "properties": { "highway": "unclassified", "length_meters": 142.9, "travel_time_mins": 0.3, "source_type": "PrevisIA (AI Traces)" }, "geometry": { "type": "LineString", "coordinates": [ [ -47.844586, -3.688527 ], [ -47.844458, -3.688459 ], [ -47.844374, -3.688416 ], [ -47.84428, -3.688372 ], [ -47.84418, -3.688326 ], [ -47.844075, -3.68828 ], [ -47.843966, -3.688234 ], [ -47.843857, -3.688187 ], [ -47.843749, -3.688141 ], [ -47.843646, -3.688095 ], [ -47.843553, -3.688053 ], [ -47.843419, -3.687988 ] ] } },
{ "type": "Feature", "properties": { "highway": "unclassified", "length_meters": 102.0, "travel_time_mins": 0.2, "source_type": "PrevisIA (AI Traces)" }, "geometry": { "type": "LineString", "coordinates": [ [ -47.845485, -3.688707 ], [ -47.845225, -3.68866 ], [ -47.845072, -3.688631 ], [ -47.844922, -3.688601 ], [ -47.844786, -3.688572 ], [ -47.844586, -3.688527 ] ] } },
{ "type": "Feature", "properties": { "highway": "unclassified", "length_meters": 14.1, "travel_time_mins": 0.0, "source_type": "PrevisIA (AI Traces)" }, "geometry": { "type": "LineString", "coordinates": [ [ -47.845575, -3.688797 ], [ -47.845485, -3.688707 ] ] } },
{ "type": "Feature", "properties": { "highway": "unclassified", "length_meters": 10.0, "travel_time_mins": 0.0, "source_type": "PrevisIA (AI Traces)" }, "geometry": { "type": "LineString", "coordinates": [ [ -47.845575, -3.688887 ], [ -47.845575, -3.688797 ] ] } },
{ "type": "Feature", "properties": { "highway": "unclassified", "length_meters": 9.9, "travel_time_mins": 0.0, "source_type": "PrevisIA (AI Traces)" }, "geometry": { "type": "LineString", "coordinates": [ [ -47.845575, -3.688887 ], [ -47.845664, -3.688887 ] ] } },
{ "type": "Feature", "properties": { "highway": "unclassified", "length_meters": 896.0, "travel_time_mins": 2.2, "source_type": "PrevisIA (AI Traces)" }, "geometry": { "type": "LineString", "coordinates": [ [ -47.85357, -3.690414 ], [ -47.853256, -3.690314 ], [ -47.853055, -3.690255 ], [ -47.852839, -3.690196 ], [ -47.852613, -3.69014 ], [ -47.852381, -3.690087 ], [ -47.852146, -3.690037 ], [ -47.851907, -3.68999 ], [ -47.851668, -3.689943 ], [ -47.851428, -3.689898 ], [ -47.851186, -3.689852 ], [ -47.850943, -3.689807 ], [ -47.850698, -3.689763 ], [ -47.85045, -3.689718 ], [ -47.850201, -3.689673 ], [ -47.84995, -3.689628 ], [ -47.849698, -3.689583 ], [ -47.849446, -3.689538 ], [ -47.849194, -3.689493 ], [ -47.848943, -3.689448 ], [ -47.848694, -3.689403 ], [ -47.848446, -3.689358 ], [ -47.848201, -3.689313 ], [ -47.847955, -3.689268 ], [ -47.84771, -3.689223 ], [ -47.847463, -3.689178 ], [ -47.847213, -3.689133 ], [ -47.846958, -3.689088 ], [ -47.8467, -3.689044 ], [ -47.846441, -3.689001 ], [ -47.84619, -3.688961 ], [ -47.845967, -3.688928 ], [ -47.845664, -3.688887 ] ] } },
{ "type": "Feature", "properties": { "highway": "unclassified", "length_meters": 14.0, "travel_time_mins": 0.0, "source_type": "PrevisIA (AI Traces)" }, "geometry": { "type": "LineString", "coordinates": [ [ -47.85357, -3.690414 ], [ -47.853659, -3.690324 ] ] } },
{ "type": "Feature", "properties": { "highway": "unclassified", "length_meters": 10.0, "travel_time_mins": 0.0, "source_type": "PrevisIA (AI Traces)" }, "geometry": { "type": "LineString", "coordinates": [ [ -47.853659, -3.690324 ], [ -47.853659, -3.690234 ] ] } },
{ "type": "Feature", "properties": { "highway": "unclassified", "length_meters": 878.5, "travel_time_mins": 2.1, "source_type": "PrevisIA (AI Traces)" }, "geometry": { "type": "LineString", "coordinates": [ [ -47.853659, -3.690234 ], [ -47.853781, -3.690037 ], [ -47.853858, -3.689913 ], [ -47.853943, -3.689782 ], [ -47.854031, -3.689648 ], [ -47.854122, -3.689515 ], [ -47.854213, -3.689383 ], [ -47.854302, -3.689253 ], [ -47.854388, -3.689124 ], [ -47.854469, -3.688997 ], [ -47.854545, -3.688872 ], [ -47.854618, -3.688747 ], [ -47.854689, -3.688623 ], [ -47.854762, -3.688498 ], [ -47.854837, -3.688371 ], [ -47.854916, -3.688242 ], [ -47.854998, -3.688112 ], [ -47.855083, -3.687981 ], [ -47.855168, -3.68785 ], [ -47.855253, -3.68772 ], [ -47.855338, -3.68759 ], [ -47.855424, -3.687459 ], [ -47.855509, -3.687329 ], [ -47.855595, -3.687198 ], [ -47.855682, -3.687066 ], [ -47.855768, -3.686935 ], [ -47.855854, -3.686805 ], [ -47.855938, -3.686676 ], [ -47.85602, -3.686548 ], [ -47.856101, -3.686423 ], [ -47.85618, -3.686299 ], [ -47.856258, -3.686176 ], [ -47.856336, -3.686053 ], [ -47.856415, -3.685929 ], [ -47.856494, -3.685805 ], [ -47.856574, -3.68568 ], [ -47.856655, -3.685554 ], [ -47.856736, -3.685428 ], [ -47.856819, -3.685301 ], [ -47.856904, -3.685171 ], [ -47.856992, -3.685037 ], [ -47.857086, -3.684899 ], [ -47.857183, -3.684757 ], [ -47.857283, -3.684611 ], [ -47.857384, -3.684465 ], [ -47.857483, -3.68432 ], [ -47.85758, -3.684177 ], [ -47.857672, -3.68404 ], [ -47.85776, -3.683908 ], [ -47.857839, -3.683788 ], [ -47.857903, -3.683691 ], [ -47.857971, -3.683587 ] ] } },
{ "type": "Feature", "properties": { "highway": "unclassified", "length_meters": 424.2, "travel_time_mins": 1.0, "source_type": "PrevisIA (AI Traces)" }, "geometry": { "type": "LineString", "coordinates": [ [ -47.860756, -3.686192 ], [ -47.860438, -3.685813 ], [ -47.860203, -3.685554 ], [ -47.859916, -3.685258 ], [ -47.859585, -3.684938 ], [ -47.859225, -3.68461 ], [ -47.858967, -3.684219 ], [ -47.858508, -3.684006 ], [ -47.857971, -3.683587 ] ] } },
{ "type": "Feature", "properties": { "highway": "unclassified", "length_meters": 14.1, "travel_time_mins": 0.0, "source_type": "PrevisIA (AI Traces)" }, "geometry": { "type": "LineString", "coordinates": [ [ -47.860846, -3.686282 ], [ -47.860756, -3.686192 ] ] } },
{ "type": "Feature", "properties": { "highway": "unclassified", "length_meters": 10.0, "travel_time_mins": 0.0, "source_type": "PrevisIA (AI Traces)" }, "geometry": { "type": "LineString", "coordinates": [ [ -47.860846, -3.686282 ], [ -47.860936, -3.686282 ] ] } },
{ "type": "Feature", "properties": { "highway": "unclassified", "length_meters": 489.0, "travel_time_mins": 1.2, "source_type": "PrevisIA (AI Traces)" }, "geometry": { "type": "LineString", "coordinates": [ [ -47.86417, -3.689246 ], [ -47.864036, -3.689042 ], [ -47.863926, -3.688898 ], [ -47.863776, -3.688725 ], [ -47.863582, -3.688521 ], [ -47.863342, -3.688285 ], [ -47.862979, -3.687953 ], [ -47.862746, -3.687736 ], [ -47.862416, -3.687445 ], [ -47.862086, -3.687163 ], [ -47.861773, -3.686903 ], [ -47.861611, -3.686714 ], [ -47.861254, -3.686502 ], [ -47.860936, -3.686282 ] ] } },
{ "type": "Feature", "properties": { "highway": "unclassified", "length_meters": 10.0, "travel_time_mins": 0.0, "source_type": "PrevisIA (AI Traces)" }, "geometry": { "type": "LineString", "coordinates": [ [ -47.86417, -3.689336 ], [ -47.86417, -3.689246 ] ] } },
{ "type": "Feature", "properties": { "highway": "unclassified", "length_meters": 10.0, "travel_time_mins": 0.0, "source_type": "PrevisIA (AI Traces)" }, "geometry": { "type": "LineString", "coordinates": [ [ -47.86417, -3.689336 ], [ -47.86426, -3.689336 ] ] } },
{ "type": "Feature", "properties": { "highway": "unclassified", "length_meters": 261.8, "travel_time_mins": 0.6, "source_type": "PrevisIA (AI Traces)" }, "geometry": { "type": "LineString", "coordinates": [ [ -47.866056, -3.690863 ], [ -47.866026, -3.690702 ], [ -47.865566, -3.690409 ], [ -47.865267, -3.690144 ], [ -47.864966, -3.689888 ], [ -47.864687, -3.689662 ], [ -47.864487, -3.689348 ], [ -47.86426, -3.689336 ] ] } },
{ "type": "Feature", "properties": { "highway": "unclassified", "length_meters": 10.0, "travel_time_mins": 0.0, "source_type": "PrevisIA (AI Traces)" }, "geometry": { "type": "LineString", "coordinates": [ [ -47.866056, -3.690953 ], [ -47.866056, -3.690863 ] ] } },
{ "type": "Feature", "properties": { "highway": "unclassified", "length_meters": 10.0, "travel_time_mins": 0.0, "source_type": "PrevisIA (AI Traces)" }, "geometry": { "type": "LineString", "coordinates": [ [ -47.866056, -3.690953 ], [ -47.866146, -3.690953 ] ] } },
{ "type": "Feature", "properties": { "highway": "unclassified", "length_meters": 247.1, "travel_time_mins": 0.6, "source_type": "PrevisIA (AI Traces)" }, "geometry": { "type": "LineString", "coordinates": [ [ -47.867763, -3.69248 ], [ -47.86751, -3.692201 ], [ -47.867339, -3.692023 ], [ -47.867144, -3.691832 ], [ -47.866933, -3.691634 ], [ -47.866711, -3.691435 ], [ -47.866494, -3.691247 ], [ -47.866146, -3.690953 ] ] } },
{ "type": "Feature", "properties": { "highway": "unclassified", "length_meters": 10.0, "travel_time_mins": 0.0, "source_type": "PrevisIA (AI Traces)" }, "geometry": { "type": "LineString", "coordinates": [ [ -47.867763, -3.69257 ], [ -47.867763, -3.69248 ] ] } },
{ "type": "Feature", "properties": { "highway": "unclassified", "length_meters": 10.0, "travel_time_mins": 0.0, "source_type": "PrevisIA (AI Traces)" }, "geometry": { "type": "LineString", "coordinates": [ [ -47.867763, -3.69257 ], [ -47.867853, -3.69257 ] ] } },
{ "type": "Feature", "properties": { "highway": "unclassified", "length_meters": 522.4, "travel_time_mins": 1.3, "source_type": "PrevisIA (AI Traces)" }, "geometry": { "type": "LineString", "coordinates": [ [ -47.871626, -3.695355 ], [ -47.871391, -3.695249 ], [ -47.87124, -3.695171 ], [ -47.871075, -3.695073 ], [ -47.870901, -3.694956 ], [ -47.87072, -3.694822 ], [ -47.870534, -3.694673 ], [ -47.870347, -3.694514 ], [ -47.870159, -3.694349 ], [ -47.869969, -3.694182 ], [ -47.869775, -3.694012 ], [ -47.869574, -3.69384 ], [ -47.869364, -3.693666 ], [ -47.869146, -3.693491 ], [ -47.868924, -3.693316 ], [ -47.868702, -3.693147 ], [ -47.868484, -3.692988 ], [ -47.868457, -3.692826 ], [ -47.86828, -3.692844 ], [ -47.868101, -3.692725 ], [ -47.867853, -3.69257 ] ] } },
{ "type": "Feature", "properties": { "highway": "unclassified", "length_meters": 10.0, "travel_time_mins": 0.0, "source_type": "PrevisIA (AI Traces)" }, "geometry": { "type": "LineString", "coordinates": [ [ -47.871626, -3.695355 ], [ -47.871716, -3.695355 ] ] } },
{ "type": "Feature", "properties": { "highway": "unclassified", "length_meters": 10.0, "travel_time_mins": 0.0, "source_type": "PrevisIA (AI Traces)" }, "geometry": { "type": "LineString", "coordinates": [ [ -47.871716, -3.695445 ], [ -47.871716, -3.695355 ] ] } },
{ "type": "Feature", "properties": { "highway": "unclassified", "length_meters": 226.4, "travel_time_mins": 0.5, "source_type": "PrevisIA (AI Traces)" }, "geometry": { "type": "LineString", "coordinates": [ [ -47.873063, -3.696972 ], [ -47.872851, -3.696755 ], [ -47.872711, -3.696613 ], [ -47.872556, -3.696457 ], [ -47.872396, -3.696291 ], [ -47.872238, -3.696122 ], [ -47.872091, -3.695955 ], [ -47.871933, -3.695759 ], [ -47.871855, -3.695654 ], [ -47.871716, -3.695445 ] ] } },
{ "type": "Feature", "properties": { "highway": "unclassified", "length_meters": 211.9, "travel_time_mins": 0.5, "source_type": "PrevisIA (AI Traces)" }, "geometry": { "type": "LineString", "coordinates": [ [ -47.8745, -3.698229 ], [ -47.874058, -3.697833 ], [ -47.873804, -3.697609 ], [ -47.873564, -3.697399 ], [ -47.873356, -3.69722 ], [ -47.873063, -3.696972 ] ] } },
{ "type": "Feature", "properties": { "highway": "unclassified", "length_meters": 10.0, "travel_time_mins": 0.0, "source_type": "PrevisIA (AI Traces)" }, "geometry": { "type": "LineString", "coordinates": [ [ -47.8745, -3.698319 ], [ -47.8745, -3.698229 ] ] } },
{ "type": "Feature", "properties": { "highway": "unclassified", "length_meters": 10.0, "travel_time_mins": 0.0, "source_type": "PrevisIA (AI Traces)" }, "geometry": { "type": "LineString", "coordinates": [ [ -47.8745, -3.698319 ], [ -47.87459, -3.698319 ] ] } },
{ "type": "Feature", "properties": { "highway": "unclassified", "length_meters": 218.7, "travel_time_mins": 0.5, "source_type": "PrevisIA (AI Traces)" }, "geometry": { "type": "LineString", "coordinates": [ [ -47.876027, -3.699667 ], [ -47.875701, -3.699338 ], [ -47.875496, -3.699137 ], [ -47.875282, -3.698933 ], [ -47.875072, -3.698739 ], [ -47.874879, -3.698567 ], [ -47.87459, -3.698319 ] ] } },
{ "type": "Feature", "properties": { "highway": "unclassified", "length_meters": 553.6, "travel_time_mins": 1.3, "source_type": "PrevisIA (AI Traces)" }, "geometry": { "type": "LineString", "coordinates": [ [ -47.879711, -3.70299 ], [ -47.879488, -3.702701 ], [ -47.879327, -3.702509 ], [ -47.879134, -3.702294 ], [ -47.878916, -3.702066 ], [ -47.87868, -3.70183 ], [ -47.878439, -3.701595 ], [ -47.878201, -3.701368 ], [ -47.877974, -3.701154 ], [ -47.877761, -3.700956 ], [ -47.877561, -3.700773 ], [ -47.877368, -3.700605 ], [ -47.877178, -3.700447 ], [ -47.876986, -3.700297 ], [ -47.876791, -3.700154 ], [ -47.876598, -3.700019 ], [ -47.876414, -3.699896 ], [ -47.876252, -3.699794 ], [ -47.876027, -3.699667 ] ] } },
{ "type": "Feature", "properties": { "highway": "unclassified", "length_meters": 14.0, "travel_time_mins": 0.0, "source_type": "PrevisIA (AI Traces)" }, "geometry": { "type": "LineString", "coordinates": [ [ -47.8798, -3.70308 ], [ -47.879711, -3.70299 ] ] } },
{ "type": "Feature", "properties": { "highway": "unclassified", "length_meters": 201.0, "travel_time_mins": 0.5, "source_type": "PrevisIA (AI Traces)" }, "geometry": { "type": "LineString", "coordinates": [ [ -47.881238, -3.704158 ], [ -47.88099, -3.703917 ], [ -47.880836, -3.703774 ], [ -47.880675, -3.703632 ], [ -47.880515, -3.703501 ], [ -47.880362, -3.703387 ], [ -47.880217, -3.70329 ], [ -47.880084, -3.703212 ], [ -47.879968, -3.703152 ], [ -47.8798, -3.70308 ] ] } },
{ "type": "Feature", "properties": { "highway": "unclassified", "length_meters": 10.0, "travel_time_mins": 0.0, "source_type": "PrevisIA (AI Traces)" }, "geometry": { "type": "LineString", "coordinates": [ [ -47.881238, -3.704248 ], [ -47.881238, -3.704158 ] ] } },
{ "type": "Feature", "properties": { "highway": "unclassified", "length_meters": 10.0, "travel_time_mins": 0.0, "source_type": "PrevisIA (AI Traces)" }, "geometry": { "type": "LineString", "coordinates": [ [ -47.881238, -3.704248 ], [ -47.881328, -3.704248 ] ] } },
{ "type": "Feature", "properties": { "highway": "unclassified", "length_meters": 439.9, "travel_time_mins": 1.1, "source_type": "PrevisIA (AI Traces)" }, "geometry": { "type": "LineString", "coordinates": [ [ -47.884382, -3.706763 ], [ -47.8842, -3.706578 ], [ -47.884069, -3.706451 ], [ -47.883912, -3.706304 ], [ -47.883729, -3.706138 ], [ -47.883522, -3.705956 ], [ -47.883293, -3.705759 ], [ -47.883047, -3.705552 ], [ -47.882791, -3.70534 ], [ -47.882531, -3.705128 ], [ -47.882274, -3.704923 ], [ -47.882028, -3.704733 ], [ -47.8818, -3.704565 ], [ -47.881603, -3.704427 ], [ -47.881328, -3.704248 ] ] } },
{ "type": "Feature", "properties": { "highway": "unclassified", "length_meters": 10.0, "travel_time_mins": 0.0, "source_type": "PrevisIA (AI Traces)" }, "geometry": { "type": "LineString", "coordinates": [ [ -47.884382, -3.706853 ], [ -47.884382, -3.706763 ] ] } },
{ "type": "Feature", "properties": { "highway": "unclassified", "length_meters": 10.0, "travel_time_mins": 0.0, "source_type": "PrevisIA (AI Traces)" }, "geometry": { "type": "LineString", "coordinates": [ [ -47.884382, -3.706853 ], [ -47.884472, -3.706853 ] ] } },
{ "type": "Feature", "properties": { "highway": "unclassified", "length_meters": 383.1, "travel_time_mins": 0.9, "source_type": "PrevisIA (AI Traces)" }, "geometry": { "type": "LineString", "coordinates": [ [ -47.887167, -3.709009 ], [ -47.886924, -3.708819 ], [ -47.886755, -3.708685 ], [ -47.886557, -3.708525 ], [ -47.886328, -3.70834 ], [ -47.886071, -3.70813 ], [ -47.885789, -3.7079 ], [ -47.885491, -3.707659 ], [ -47.885191, -3.707417 ], [ -47.884907, -3.707193 ], [ -47.884472, -3.706853 ] ] } },
{ "type": "Feature", "properties": { "highway": "unclassified", "length_meters": 9.9, "travel_time_mins": 0.0, "source_type": "PrevisIA (AI Traces)" }, "geometry": { "type": "LineString", "coordinates": [ [ -47.887167, -3.709009 ], [ -47.887256, -3.709009 ] ] } },
{ "type": "Feature", "properties": { "highway": "unclassified", "length_meters": 212.0, "travel_time_mins": 0.5, "source_type": "PrevisIA (AI Traces)" }, "geometry": { "type": "LineString", "coordinates": [ [ -47.889143, -3.709279 ], [ -47.888515, -3.709186 ], [ -47.888147, -3.709133 ], [ -47.887796, -3.709083 ], [ -47.887256, -3.709009 ] ] } },
{ "type": "Feature", "properties": { "highway": "unclassified", "length_meters": 14.1, "travel_time_mins": 0.0, "source_type": "PrevisIA (AI Traces)" }, "geometry": { "type": "LineString", "coordinates": [ [ -47.889143, -3.709279 ], [ -47.889233, -3.709189 ] ] } },
{ "type": "Feature", "properties": { "highway": "unclassified", "length_meters": 10.0, "travel_time_mins": 0.0, "source_type": "PrevisIA (AI Traces)" }, "geometry": { "type": "LineString", "coordinates": [ [ -47.889233, -3.709189 ], [ -47.889323, -3.709189 ] ] } },
{ "type": "Feature", "properties": { "highway": "unclassified", "length_meters": 339.9, "travel_time_mins": 0.8, "source_type": "PrevisIA (AI Traces)" }, "geometry": { "type": "LineString", "coordinates": [ [ -47.892377, -3.709099 ], [ -47.891818, -3.709141 ], [ -47.891436, -3.709162 ], [ -47.891002, -3.709178 ], [ -47.890536, -3.709188 ], [ -47.890074, -3.709192 ], [ -47.889323, -3.709189 ] ] } },
{ "type": "Feature", "properties": { "highway": "unclassified", "length_meters": 699.7, "travel_time_mins": 1.7, "source_type": "PrevisIA (AI Traces)" }, "geometry": { "type": "LineString", "coordinates": [ [ -47.898665, -3.709099 ], [ -47.897514, -3.709146 ], [ -47.896784, -3.709169 ], [ -47.896014, -3.709186 ], [ -47.895251, -3.709195 ], [ -47.894786, -3.709207 ], [ -47.894534, -3.709194 ], [ -47.893893, -3.709184 ], [ -47.893348, -3.709166 ], [ -47.892917, -3.709143 ], [ -47.892377, -3.709099 ] ] } },
{ "type": "Feature", "properties": { "highway": "unclassified", "length_meters": 219.8, "travel_time_mins": 0.5, "source_type": "PrevisIA (AI Traces)" }, "geometry": { "type": "LineString", "coordinates": [ [ -47.900641, -3.709099 ], [ -47.900018, -3.709105 ], [ -47.899639, -3.709107 ], [ -47.899265, -3.709106 ], [ -47.898665, -3.709099 ] ] } },
{ "type": "Feature", "properties": { "highway": "unclassified", "length_meters": 10.0, "travel_time_mins": 0.0, "source_type": "PrevisIA (AI Traces)" }, "geometry": { "type": "LineString", "coordinates": [ [ -47.900641, -3.709099 ], [ -47.900731, -3.709099 ] ] } },
{ "type": "Feature", "properties": { "highway": "unclassified", "length_meters": 100.4, "travel_time_mins": 0.2, "source_type": "PrevisIA (AI Traces)" }, "geometry": { "type": "LineString", "coordinates": [ [ -47.901629, -3.709189 ], [ -47.901279, -3.709158 ], [ -47.901075, -3.709138 ], [ -47.900731, -3.709099 ] ] } },
{ "type": "Feature", "properties": { "highway": "unclassified", "length_meters": 139.9, "travel_time_mins": 0.3, "source_type": "PrevisIA (AI Traces)" }, "geometry": { "type": "LineString", "coordinates": [ [ -47.902887, -3.709189 ], [ -47.902394, -3.709192 ], [ -47.902109, -3.709192 ], [ -47.901629, -3.709189 ] ] } },
{ "type": "Feature", "properties": { "highway": "unclassified", "length_meters": 221.1, "travel_time_mins": 0.5, "source_type": "PrevisIA (AI Traces)" }, "geometry": { "type": "LineString", "coordinates": [ [ -47.904863, -3.709368 ], [ -47.904428, -3.709362 ], [ -47.904162, -3.709352 ], [ -47.903892, -3.709335 ], [ -47.903632, -3.709311 ], [ -47.903392, -3.709281 ], [ -47.903184, -3.709247 ], [ -47.902887, -3.709189 ] ] } },
{ "type": "Feature", "properties": { "highway": "unclassified", "length_meters": 100.0, "travel_time_mins": 0.2, "source_type": "PrevisIA (AI Traces)" }, "geometry": { "type": "LineString", "coordinates": [ [ -47.905762, -3.709368 ], [ -47.905409, -3.709372 ], [ -47.905206, -3.709372 ], [ -47.904863, -3.709368 ] ] } },
{ "type": "Feature", "properties": { "highway": "unclassified", "length_meters": 460.5, "travel_time_mins": 1.1, "source_type": "PrevisIA (AI Traces)" }, "geometry": { "type": "LineString", "coordinates": [ [ -47.909899, -3.709517 ], [ -47.909604, -3.709523 ], [ -47.909029, -3.709522 ], [ -47.908407, -3.709511 ], [ -47.907767, -3.709489 ], [ -47.907144, -3.70946 ], [ -47.906583, -3.709427 ], [ -47.905762, -3.709368 ] ] } },
{ "type": "Feature", "properties": { "highway": "unclassified", "length_meters": 139.5, "travel_time_mins": 0.3, "source_type": "PrevisIA (AI Traces)" }, "geometry": { "type": "LineString", "coordinates": [ [ -47.911152, -3.709458 ], [ -47.910622, -3.709614 ], [ -47.910544, -3.709496 ], [ -47.910113, -3.709513 ], [ -47.909899, -3.709517 ] ] } },
{ "type": "Feature", "properties": { "highway": "unclassified", "length_meters": 220.0, "travel_time_mins": 0.5, "source_type": "PrevisIA (AI Traces)" }, "geometry": { "type": "LineString", "coordinates": [ [ -47.913128, -3.709368 ], [ -47.912351, -3.709408 ], [ -47.911903, -3.709429 ], [ -47.911152, -3.709458 ] ] } },
{ "type": "Feature", "properties": { "highway": "unclassified", "length_meters": 10.0, "travel_time_mins": 0.0, "source_type": "PrevisIA (AI Traces)" }, "geometry": { "type": "LineString", "coordinates": [ [ -47.913128, -3.709368 ], [ -47.913218, -3.709368 ] ] } },
{ "type": "Feature", "properties": { "highway": "unclassified", "length_meters": 263.4, "travel_time_mins": 0.6, "source_type": "PrevisIA (AI Traces)" }, "geometry": { "type": "LineString", "coordinates": [ [ -47.915611, -3.709836 ], [ -47.915244, -3.709722 ], [ -47.915056, -3.709713 ], [ -47.914865, -3.709697 ], [ -47.914724, -3.709734 ], [ -47.914497, -3.709643 ], [ -47.914276, -3.709584 ], [ -47.914148, -3.709569 ], [ -47.913975, -3.709529 ], [ -47.9138, -3.709489 ], [ -47.913627, -3.709452 ], [ -47.913465, -3.709418 ], [ -47.913218, -3.709368 ] ] } },
{ "type": "Feature", "properties": { "highway": "unclassified", "length_meters": 140.4, "travel_time_mins": 0.3, "source_type": "PrevisIA (AI Traces)" }, "geometry": { "type": "LineString", "coordinates": [ [ -47.916811, -3.709818 ], [ -47.91646, -3.709811 ], [ -47.916248, -3.709802 ], [ -47.916037, -3.709787 ], [ -47.915844, -3.709767 ], [ -47.915611, -3.709836 ] ] } },
{ "type": "Feature", "properties": { "highway": "unclassified", "length_meters": 59.9, "travel_time_mins": 0.1, "source_type": "PrevisIA (AI Traces)" }, "geometry": { "type": "LineString", "coordinates": [ [ -47.91735, -3.709818 ], [ -47.917139, -3.709821 ], [ -47.917016, -3.709821 ], [ -47.916811, -3.709818 ] ] } },
{ "type": "Feature", "properties": { "highway": "unclassified", "length_meters": 524.8, "travel_time_mins": 1.3, "source_type": "PrevisIA (AI Traces)" }, "geometry": { "type": "LineString", "coordinates": [ [ -47.922021, -3.710446 ], [ -47.921673, -3.710441 ], [ -47.921445, -3.710432 ], [ -47.921193, -3.710415 ], [ -47.920927, -3.710392 ], [ -47.920653, -3.710361 ], [ -47.920376, -3.710325 ], [ -47.920101, -3.710285 ], [ -47.91983, -3.710243 ], [ -47.91956, -3.710199 ], [ -47.91929, -3.710154 ], [ -47.919017, -3.710108 ], [ -47.91874, -3.710062 ], [ -47.918461, -3.710016 ], [ -47.918183, -3.709969 ], [ -47.917918, -3.709924 ], [ -47.917683, -3.709881 ], [ -47.91735, -3.709818 ] ] } },
{ "type": "Feature", "properties": { "highway": "unclassified", "length_meters": 249.8, "travel_time_mins": 0.6, "source_type": "PrevisIA (AI Traces)" }, "geometry": { "type": "LineString", "coordinates": [ [ -47.924267, -3.710446 ], [ -47.923478, -3.710453 ], [ -47.923032, -3.710454 ], [ -47.922623, -3.710453 ], [ -47.922021, -3.710446 ] ] } },
{ "type": "Feature", "properties": { "highway": "unclassified", "length_meters": 10.0, "travel_time_mins": 0.0, "source_type": "PrevisIA (AI Traces)" }, "geometry": { "type": "LineString", "coordinates": [ [ -47.924267, -3.710446 ], [ -47.924357, -3.710446 ] ] } },
{ "type": "Feature", "properties": { "highway": "unclassified", "length_meters": 542.3, "travel_time_mins": 1.3, "source_type": "PrevisIA (AI Traces)" }, "geometry": { "type": "LineString", "coordinates": [ [ -47.929208, -3.710896 ], [ -47.928831, -3.71089 ], [ -47.928558, -3.710881 ], [ -47.92823, -3.710864 ], [ -47.927851, -3.710841 ], [ -47.92743, -3.71081 ], [ -47.926983, -3.710774 ], [ -47.926527, -3.710733 ], [ -47.926082, -3.71069 ], [ -47.925665, -3.710645 ], [ -47.925363, -3.710694 ], [ -47.924962, -3.710554 ], [ -47.924697, -3.710512 ], [ -47.924357, -3.710446 ] ] } },
{ "type": "Feature", "properties": { "highway": "unclassified", "length_meters": 310.5, "travel_time_mins": 0.7, "source_type": "PrevisIA (AI Traces)" }, "geometry": { "type": "LineString", "coordinates": [ [ -47.931993, -3.711075 ], [ -47.931495, -3.711069 ], [ -47.931173, -3.711059 ], [ -47.930821, -3.711042 ], [ -47.930455, -3.711018 ], [ -47.930089, -3.710987 ], [ -47.929743, -3.710954 ], [ -47.929208, -3.710896 ] ] } },
{ "type": "Feature", "properties": { "highway": "unclassified", "length_meters": 661.4, "travel_time_mins": 1.6, "source_type": "PrevisIA (AI Traces)" }, "geometry": { "type": "LineString", "coordinates": [ [ -47.937921, -3.711524 ], [ -47.937499, -3.711519 ], [ -47.937201, -3.71151 ], [ -47.936845, -3.711493 ], [ -47.936431, -3.711469 ], [ -47.93596, -3.711439 ], [ -47.93544, -3.711402 ], [ -47.934888, -3.711362 ], [ -47.934326, -3.711319 ], [ -47.933781, -3.711274 ], [ -47.933276, -3.711228 ], [ -47.932831, -3.711183 ], [ -47.932467, -3.711141 ], [ -47.931993, -3.711075 ] ] } },
{ "type": "Feature", "properties": { "highway": "unclassified", "length_meters": 773.4, "travel_time_mins": 1.9, "source_type": "PrevisIA (AI Traces)" }, "geometry": { "type": "LineString", "coordinates": [ [ -47.944838, -3.712243 ], [ -47.944262, -3.712263 ], [ -47.944136, -3.712191 ], [ -47.943705, -3.712157 ], [ -47.943261, -3.71212 ], [ -47.942819, -3.71208 ], [ -47.942386, -3.712038 ], [ -47.941961, -3.711995 ], [ -47.941541, -3.71195 ], [ -47.941124, -3.711906 ], [ -47.940706, -3.71186 ], [ -47.940284, -3.711815 ], [ -47.939861, -3.711769 ], [ -47.939442, -3.711722 ], [ -47.939039, -3.711676 ], [ -47.938667, -3.71163 ], [ -47.938349, -3.711588 ], [ -47.937921, -3.711524 ] ] } },
{ "type": "Feature", "properties": { "highway": "unclassified", "length_meters": 10.0, "travel_time_mins": 0.0, "source_type": "PrevisIA (AI Traces)" }, "geometry": { "type": "LineString", "coordinates": [ [ -47.944838, -3.712243 ], [ -47.945013, -3.712234 ] ] } },
{ "type": "Feature", "properties": { "highway": "unclassified", "length_meters": 298.0, "travel_time_mins": 0.7, "source_type": "PrevisIA (AI Traces)" }, "geometry": { "type": "LineString", "coordinates": [ [ -47.947518, -3.712884 ], [ -47.947283, -3.712813 ], [ -47.947123, -3.712774 ], [ -47.946951, -3.712729 ], [ -47.946769, -3.712679 ], [ -47.946579, -3.712626 ], [ -47.946377, -3.712572 ], [ -47.946164, -3.712516 ], [ -47.945938, -3.712461 ], [ -47.945705, -3.712407 ], [ -47.945473, -3.712356 ], [ -47.945256, -3.712311 ], [ -47.945013, -3.712234 ] ] } },
{ "type": "Feature", "properties": { "highway": "unclassified", "length_meters": 29.8, "travel_time_mins": 0.1, "source_type": "PrevisIA (AI Traces)" }, "geometry": { "type": "LineString", "coordinates": [ [ -47.947674, -3.713209 ], [ -47.947518, -3.712884 ] ] } },
{ "type": "Feature", "properties": { "highway": "unclassified", "length_meters": 353.2, "travel_time_mins": 0.8, "source_type": "PrevisIA (AI Traces)" }, "geometry": { "type": "LineString", "coordinates": [ [ -47.949959, -3.715387 ], [ -47.949723, -3.715122 ], [ -47.949552, -3.714942 ], [ -47.949346, -3.714735 ], [ -47.949108, -3.714508 ], [ -47.948844, -3.714266 ], [ -47.948564, -3.714018 ], [ -47.948283, -3.713777 ], [ -47.948021, -3.713557 ], [ -47.947674, -3.713209 ] ] } },
{ "type": "Feature", "properties": { "highway": "unclassified", "length_meters": 58.2, "travel_time_mins": 0.1, "source_type": "PrevisIA (AI Traces)" }, "geometry": { "type": "LineString", "coordinates": [ [ -47.950408, -3.715657 ], [ -47.95023, -3.715549 ], [ -47.950128, -3.715488 ], [ -47.949959, -3.715387 ] ] } },
{ "type": "Feature", "properties": { "highway": "unclassified", "length_meters": 369.6, "travel_time_mins": 0.9, "source_type": "PrevisIA (AI Traces)" }, "geometry": { "type": "LineString", "coordinates": [ [ -47.950408, -3.715657 ], [ -47.951712, -3.715653 ], [ -47.952465, -3.715653 ], [ -47.953732, -3.715657 ] ] } },
{ "type": "Feature", "properties": { "highway": "unclassified", "length_meters": 14.1, "travel_time_mins": 0.0, "source_type": "PrevisIA (AI Traces)" }, "geometry": { "type": "LineString", "coordinates": [ [ -47.953732, -3.715657 ], [ -47.953822, -3.715567 ] ] } },
{ "type": "Feature", "properties": { "highway": "unclassified", "length_meters": 9.9, "travel_time_mins": 0.0, "source_type": "PrevisIA (AI Traces)" }, "geometry": { "type": "LineString", "coordinates": [ [ -47.953822, -3.715567 ], [ -47.953911, -3.715567 ] ] } },
{ "type": "Feature", "properties": { "highway": "unclassified", "length_meters": 269.8, "travel_time_mins": 0.6, "source_type": "PrevisIA (AI Traces)" }, "geometry": { "type": "LineString", "coordinates": [ [ -47.956337, -3.715567 ], [ -47.955737, -3.715576 ], [ -47.955356, -3.715579 ], [ -47.954951, -3.715579 ], [ -47.954554, -3.715576 ], [ -47.953911, -3.715567 ] ] } },
{ "type": "Feature", "properties": { "highway": "unclassified", "length_meters": 10.0, "travel_time_mins": 0.0, "source_type": "PrevisIA (AI Traces)" }, "geometry": { "type": "LineString", "coordinates": [ [ -47.956337, -3.715567 ], [ -47.956427, -3.715567 ] ] } },
{ "type": "Feature", "properties": { "highway": "unclassified", "length_meters": 14.1, "travel_time_mins": 0.0, "source_type": "PrevisIA (AI Traces)" }, "geometry": { "type": "LineString", "coordinates": [ [ -47.956517, -3.715657 ], [ -47.956427, -3.715567 ] ] } },
{ "type": "Feature", "properties": { "highway": "unclassified", "length_meters": 922.7, "travel_time_mins": 2.2, "source_type": "PrevisIA (AI Traces)" }, "geometry": { "type": "LineString", "coordinates": [ [ -47.956517, -3.715657 ], [ -47.958267, -3.7156 ], [ -47.959212, -3.715559 ], [ -47.960042, -3.71551 ], [ -47.960708, -3.715451 ], [ -47.96121, -3.715381 ], [ -47.961582, -3.7153 ], [ -47.961861, -3.715206 ], [ -47.962083, -3.715101 ], [ -47.962276, -3.714986 ], [ -47.962456, -3.714862 ], [ -47.962635, -3.71473 ], [ -47.962817, -3.714593 ], [ -47.963001, -3.714453 ], [ -47.963187, -3.714313 ], [ -47.963371, -3.714179 ], [ -47.963548, -3.714054 ], [ -47.963718, -3.713943 ], [ -47.963875, -3.713851 ], [ -47.96402, -3.713778 ], [ -47.964147, -3.713726 ], [ -47.964243, -3.713696 ], [ -47.964332, -3.71368 ] ] } },
{ "type": "Feature", "properties": { "highway": "unclassified", "length_meters": 10.0, "travel_time_mins": 0.0, "source_type": "PrevisIA (AI Traces)" }, "geometry": { "type": "LineString", "coordinates": [ [ -47.964332, -3.71368 ], [ -47.964422, -3.71368 ] ] } },
{ "type": "Feature", "properties": { "highway": "unclassified", "length_meters": 155.6, "travel_time_mins": 0.4, "source_type": "PrevisIA (AI Traces)" }, "geometry": { "type": "LineString", "coordinates": [ [ -47.964422, -3.71368 ], [ -47.964614, -3.713442 ], [ -47.964732, -3.713298 ], [ -47.964853, -3.713152 ], [ -47.96497, -3.713013 ], [ -47.96508, -3.712883 ], [ -47.965178, -3.712769 ], [ -47.96532, -3.712602 ] ] } },
{ "type": "Feature", "properties": { "highway": "unclassified", "length_meters": 731.6, "travel_time_mins": 1.8, "source_type": "PrevisIA (AI Traces)" }, "geometry": { "type": "LineString", "coordinates": [ [ -47.96532, -3.712602 ], [ -47.965508, -3.712534 ], [ -47.96563, -3.712491 ], [ -47.965762, -3.712447 ], [ -47.965901, -3.712402 ], [ -47.966044, -3.712356 ], [ -47.96619, -3.712311 ], [ -47.966337, -3.712266 ], [ -47.966483, -3.712221 ], [ -47.966628, -3.712176 ], [ -47.96677, -3.712131 ], [ -47.966908, -3.712086 ], [ -47.967042, -3.712041 ], [ -47.96717, -3.711996 ], [ -47.967294, -3.711951 ], [ -47.967414, -3.711906 ], [ -47.967532, -3.711861 ], [ -47.967649, -3.711816 ], [ -47.967766, -3.711771 ], [ -47.967883, -3.711726 ], [ -47.968001, -3.711682 ], [ -47.968119, -3.711637 ], [ -47.968236, -3.711592 ], [ -47.968352, -3.711547 ], [ -47.968467, -3.711502 ], [ -47.968581, -3.711456 ], [ -47.968695, -3.71141 ], [ -47.968808, -3.711363 ], [ -47.968924, -3.711315 ], [ -47.969042, -3.711265 ], [ -47.969163, -3.711213 ], [ -47.969287, -3.711158 ], [ -47.969413, -3.711101 ], [ -47.969539, -3.711043 ], [ -47.969663, -3.710983 ], [ -47.969784, -3.710921 ], [ -47.969903, -3.710857 ], [ -47.970022, -3.71079 ], [ -47.97014, -3.710721 ], [ -47.97026, -3.710648 ], [ -47.970381, -3.710574 ], [ -47.970502, -3.710498 ], [ -47.970623, -3.710424 ], [ -47.970741, -3.710351 ], [ -47.970857, -3.710282 ], [ -47.97097, -3.710216 ], [ -47.971078, -3.710155 ], [ -47.971177, -3.710098 ], [ -47.971256, -3.710052 ], [ -47.971339, -3.709997 ] ] } },
{ "type": "Feature", "properties": { "highway": "unclassified", "length_meters": 67.0, "travel_time_mins": 0.2, "source_type": "PrevisIA (AI Traces)" }, "geometry": { "type": "LineString", "coordinates": [ [ -47.971878, -3.710267 ], [ -47.971732, -3.710196 ], [ -47.971644, -3.710153 ], [ -47.971553, -3.710108 ], [ -47.971469, -3.710065 ], [ -47.971339, -3.709997 ] ] } },
{ "type": "Feature", "properties": { "highway": "unclassified", "length_meters": 101.8, "travel_time_mins": 0.2, "source_type": "PrevisIA (AI Traces)" }, "geometry": { "type": "LineString", "coordinates": [ [ -47.971878, -3.710267 ], [ -47.97223, -3.710196 ], [ -47.972434, -3.710156 ], [ -47.972776, -3.710087 ] ] } },
{ "type": "Feature", "properties": { "highway": "unclassified", "length_meters": 19.9, "travel_time_mins": 0.0, "source_type": "PrevisIA (AI Traces)" }, "geometry": { "type": "LineString", "coordinates": [ [ -47.972776, -3.710087 ], [ -47.972776, -3.709907 ] ] } },
{ "type": "Feature", "properties": { "highway": "unclassified", "length_meters": 9.9, "travel_time_mins": 0.0, "source_type": "PrevisIA (AI Traces)" }, "geometry": { "type": "LineString", "coordinates": [ [ -47.972776, -3.709907 ], [ -47.972776, -3.709818 ] ] } },
{ "type": "Feature", "properties": { "highway": "unclassified", "length_meters": 10.0, "travel_time_mins": 0.0, "source_type": "PrevisIA (AI Traces)" }, "geometry": { "type": "LineString", "coordinates": [ [ -47.972776, -3.709818 ], [ -47.972866, -3.709818 ] ] } },
{ "type": "Feature", "properties": { "highway": "unclassified", "length_meters": 299.4, "travel_time_mins": 0.7, "source_type": "PrevisIA (AI Traces)" }, "geometry": { "type": "LineString", "coordinates": [ [ -47.972866, -3.709818 ], [ -47.973037, -3.70964 ], [ -47.973139, -3.709529 ], [ -47.973241, -3.709411 ], [ -47.973337, -3.709292 ], [ -47.973427, -3.709172 ], [ -47.973513, -3.709053 ], [ -47.973599, -3.708933 ], [ -47.973687, -3.708813 ], [ -47.973782, -3.708691 ], [ -47.973887, -3.70857 ], [ -47.974001, -3.708451 ], [ -47.974123, -3.708336 ], [ -47.974249, -3.708231 ], [ -47.974375, -3.708139 ], [ -47.974495, -3.70806 ], [ -47.974602, -3.708 ], [ -47.974752, -3.707931 ] ] } },
{ "type": "Feature", "properties": { "highway": "unclassified", "length_meters": 10.0, "travel_time_mins": 0.0, "source_type": "PrevisIA (AI Traces)" }, "geometry": { "type": "LineString", "coordinates": [ [ -47.974752, -3.707931 ], [ -47.974842, -3.707931 ] ] } },
{ "type": "Feature", "properties": { "highway": "unclassified", "length_meters": 10.0, "travel_time_mins": 0.0, "source_type": "PrevisIA (AI Traces)" }, "geometry": { "type": "LineString", "coordinates": [ [ -47.974842, -3.707931 ], [ -47.974842, -3.707841 ] ] } },
{ "type": "Feature", "properties": { "highway": "unclassified", "length_meters": 71.8, "travel_time_mins": 0.2, "source_type": "PrevisIA (AI Traces)" }, "geometry": { "type": "LineString", "coordinates": [ [ -47.974842, -3.707841 ], [ -47.974961, -3.707668 ], [ -47.975031, -3.707565 ], [ -47.975098, -3.707463 ], [ -47.975201, -3.707302 ] ] } },
{ "type": "Feature", "properties": { "highway": "unclassified", "length_meters": 10.0, "travel_time_mins": 0.0, "source_type": "PrevisIA (AI Traces)" }, "geometry": { "type": "LineString", "coordinates": [ [ -47.975201, -3.707302 ], [ -47.975201, -3.707212 ] ] } },
{ "type": "Feature", "properties": { "highway": "unclassified", "length_meters": 10.0, "travel_time_mins": 0.0, "source_type": "PrevisIA (AI Traces)" }, "geometry": { "type": "LineString", "coordinates": [ [ -47.975201, -3.707212 ], [ -47.975291, -3.707212 ] ] } },
{ "type": "Feature", "properties": { "highway": "unclassified", "length_meters": 162.9, "travel_time_mins": 0.4, "source_type": "PrevisIA (AI Traces)" }, "geometry": { "type": "LineString", "coordinates": [ [ -47.975291, -3.707212 ], [ -47.97549, -3.707081 ], [ -47.975617, -3.707006 ], [ -47.975753, -3.706934 ], [ -47.975899, -3.70687 ], [ -47.976054, -3.706813 ], [ -47.976216, -3.706765 ], [ -47.976376, -3.706726 ], [ -47.976639, -3.706673 ] ] } },
{ "type": "Feature", "properties": { "highway": "unclassified", "length_meters": 10.0, "travel_time_mins": 0.0, "source_type": "PrevisIA (AI Traces)" }, "geometry": { "type": "LineString", "coordinates": [ [ -47.976639, -3.706673 ], [ -47.976729, -3.706673 ] ] } },
{ "type": "Feature", "properties": { "highway": "unclassified", "length_meters": 9.9, "travel_time_mins": 0.0, "source_type": "PrevisIA (AI Traces)" }, "geometry": { "type": "LineString", "coordinates": [ [ -47.976729, -3.706673 ], [ -47.976729, -3.706584 ] ] } },
{ "type": "Feature", "properties": { "highway": "unclassified", "length_meters": 442.3, "travel_time_mins": 1.1, "source_type": "PrevisIA (AI Traces)" }, "geometry": { "type": "LineString", "coordinates": [ [ -47.976729, -3.706584 ], [ -47.976934, -3.706452 ], [ -47.97706, -3.706377 ], [ -47.97719, -3.706304 ], [ -47.977318, -3.706237 ], [ -47.977442, -3.706176 ], [ -47.977561, -3.70612 ], [ -47.977675, -3.706068 ], [ -47.977785, -3.706017 ], [ -47.977892, -3.705965 ], [ -47.977997, -3.705913 ], [ -47.978101, -3.705858 ], [ -47.978204, -3.705803 ], [ -47.978307, -3.705747 ], [ -47.97841, -3.705692 ], [ -47.978513, -3.705637 ], [ -47.978617, -3.705584 ], [ -47.978722, -3.705531 ], [ -47.978829, -3.705478 ], [ -47.97894, -3.705423 ], [ -47.979054, -3.705365 ], [ -47.979173, -3.705303 ], [ -47.979297, -3.705235 ], [ -47.979425, -3.705163 ], [ -47.979557, -3.705087 ], [ -47.979692, -3.705009 ], [ -47.979826, -3.704931 ], [ -47.979957, -3.704855 ], [ -47.980073, -3.704789 ], [ -47.980232, -3.704697 ] ] } },
{ "type": "Feature", "properties": { "highway": "unclassified", "length_meters": 134.1, "travel_time_mins": 0.3, "source_type": "PrevisIA (AI Traces)" }, "geometry": { "type": "LineString", "coordinates": [ [ -47.98113, -3.705506 ], [ -47.980767, -3.705177 ], [ -47.980563, -3.704994 ], [ -47.980232, -3.704697 ] ] } },
{ "type": "Feature", "properties": { "highway": "unclassified", "length_meters": 9.9, "travel_time_mins": 0.0, "source_type": "PrevisIA (AI Traces)" }, "geometry": { "type": "LineString", "coordinates": [ [ -47.98113, -3.705595 ], [ -47.98113, -3.705506 ] ] } },
{ "type": "Feature", "properties": { "highway": "unclassified", "length_meters": 10.0, "travel_time_mins": 0.0, "source_type": "PrevisIA (AI Traces)" }, "geometry": { "type": "LineString", "coordinates": [ [ -47.98113, -3.705595 ], [ -47.98122, -3.705595 ] ] } },
{ "type": "Feature", "properties": { "highway": "unclassified", "length_meters": 10.0, "travel_time_mins": 0.0, "source_type": "PrevisIA (AI Traces)" }, "geometry": { "type": "LineString", "coordinates": [ [ -47.98122, -3.705595 ], [ -47.98131, -3.705595 ] ] } },
{ "type": "Feature", "properties": { "highway": "unclassified", "length_meters": 10.0, "travel_time_mins": 0.0, "source_type": "PrevisIA (AI Traces)" }, "geometry": { "type": "LineString", "coordinates": [ [ -47.98131, -3.705595 ], [ -47.9814, -3.705595 ] ] } },
{ "type": "Feature", "properties": { "highway": "unclassified", "length_meters": 210.3, "travel_time_mins": 0.5, "source_type": "PrevisIA (AI Traces)" }, "geometry": { "type": "LineString", "coordinates": [ [ -47.9814, -3.705595 ], [ -47.98147, -3.70523 ], [ -47.981505, -3.705003 ], [ -47.981531, -3.704767 ], [ -47.981544, -3.704535 ], [ -47.981546, -3.704316 ], [ -47.981538, -3.704117 ], [ -47.981523, -3.703947 ], [ -47.98149, -3.703709 ] ] } },
{ "type": "Feature", "properties": { "highway": "unclassified", "length_meters": 10.0, "travel_time_mins": 0.0, "source_type": "PrevisIA (AI Traces)" }, "geometry": { "type": "LineString", "coordinates": [ [ -47.98149, -3.703709 ], [ -47.98149, -3.703619 ] ] } },
{ "type": "Feature", "properties": { "highway": "unclassified", "length_meters": 56.3, "travel_time_mins": 0.1, "source_type": "PrevisIA (AI Traces)" }, "geometry": { "type": "LineString", "coordinates": [ [ -47.98149, -3.703619 ], [ -47.981849, -3.70326 ] ] } },
{ "type": "Feature", "properties": { "highway": "unclassified", "length_meters": 39.9, "travel_time_mins": 0.1, "source_type": "PrevisIA (AI Traces)" }, "geometry": { "type": "LineString", "coordinates": [ [ -47.981849, -3.70326 ], [ -47.982208, -3.70326 ] ] } },
{ "type": "Feature", "properties": { "highway": "unclassified", "length_meters": 218.6, "travel_time_mins": 0.5, "source_type": "PrevisIA (AI Traces)" }, "geometry": { "type": "LineString", "coordinates": [ [ -47.982208, -3.70326 ], [ -47.982716, -3.702717 ], [ -47.983021, -3.702391 ], [ -47.983556, -3.701823 ] ] } },
{ "type": "Feature", "properties": { "highway": "unclassified", "length_meters": 10.0, "travel_time_mins": 0.0, "source_type": "PrevisIA (AI Traces)" }, "geometry": { "type": "LineString", "coordinates": [ [ -47.983556, -3.701823 ], [ -47.983556, -3.701733 ] ] } },
{ "type": "Feature", "properties": { "highway": "unclassified", "length_meters": 143.8, "travel_time_mins": 0.3, "source_type": "PrevisIA (AI Traces)" }, "geometry": { "type": "LineString", "coordinates": [ [ -47.983556, -3.701733 ], [ -47.983381, -3.7015 ], [ -47.983279, -3.701359 ], [ -47.98318, -3.701216 ], [ -47.983088, -3.701078 ], [ -47.983007, -3.700947 ], [ -47.982936, -3.700829 ], [ -47.982837, -3.700655 ] ] } },
{ "type": "Feature", "properties": { "highway": "unclassified", "length_meters": 149.5, "travel_time_mins": 0.4, "source_type": "PrevisIA (AI Traces)" }, "geometry": { "type": "LineString", "coordinates": [ [ -47.982837, -3.700655 ], [ -47.982864, -3.70025 ], [ -47.982975, -3.700049 ], [ -47.982898, -3.699736 ], [ -47.982927, -3.699307 ] ] } },
{ "type": "Feature", "properties": { "highway": "unclassified", "length_meters": 14.1, "travel_time_mins": 0.0, "source_type": "PrevisIA (AI Traces)" }, "geometry": { "type": "LineString", "coordinates": [ [ -47.982927, -3.699307 ], [ -47.982837, -3.699217 ] ] } },
{ "type": "Feature", "properties": { "highway": "unclassified", "length_meters": 9.9, "travel_time_mins": 0.0, "source_type": "PrevisIA (AI Traces)" }, "geometry": { "type": "LineString", "coordinates": [ [ -47.982837, -3.699217 ], [ -47.98276, -3.699064 ] ] } },
{ "type": "Feature", "properties": { "highway": "track", "length_meters": 5315.4, "travel_time_mins": 21.3, "source_type": "OSM (Official Roads)" }, "geometry": { "type": "LineString", "coordinates": [ [ -47.98276, -3.699064 ], [ -47.983039, -3.698357 ], [ -47.983576, -3.688378 ], [ -47.983404, -3.680777 ], [ -47.98394, -3.679021 ], [ -47.984005, -3.678015 ], [ -47.985035, -3.677137 ], [ -47.98658, -3.676387 ], [ -47.989004, -3.675573 ], [ -47.994455, -3.673111 ], [ -47.994712, -3.672426 ], [ -47.995141, -3.672126 ], [ -47.995399, -3.671376 ], [ -47.99527, -3.670584 ], [ -47.995592, -3.669106 ], [ -47.998467, -3.658699 ] ] } },
{ "type": "Feature", "properties": { "highway": "track", "length_meters": 13093.3, "travel_time_mins": 52.4, "source_type": "OSM (Official Roads)" }, "geometry": { "type": "LineString", "coordinates": [ [ -47.998467, -3.658699 ], [ -47.99748, -3.657993 ], [ -47.993983, -3.6578 ], [ -47.990506, -3.656537 ], [ -47.989605, -3.656579 ], [ -47.988661, -3.655616 ], [ -47.987352, -3.654995 ], [ -47.978619, -3.652832 ], [ -47.97819, -3.652232 ], [ -47.977203, -3.652404 ], [ -47.976366, -3.653217 ], [ -47.975701, -3.653174 ], [ -47.969693, -3.650434 ], [ -47.966152, -3.650069 ], [ -47.965058, -3.649299 ], [ -47.964414, -3.648356 ], [ -47.964092, -3.647478 ], [ -47.962676, -3.646322 ], [ -47.962075, -3.646129 ], [ -47.960637, -3.646429 ], [ -47.959414, -3.647178 ], [ -47.95817, -3.647136 ], [ -47.957204, -3.646515 ], [ -47.956496, -3.645915 ], [ -47.954779, -3.645487 ], [ -47.9539, -3.645572 ], [ -47.95332, -3.646086 ], [ -47.952033, -3.645679 ], [ -47.950767, -3.644609 ], [ -47.95008, -3.643452 ], [ -47.949372, -3.643131 ], [ -47.94875, -3.64236 ], [ -47.948535, -3.641375 ], [ -47.94772, -3.64084 ], [ -47.946861, -3.640925 ], [ -47.945102, -3.640433 ], [ -47.941669, -3.640048 ], [ -47.938772, -3.640048 ], [ -47.91961, -3.639555 ], [ -47.917679, -3.639491 ], [ -47.916306, -3.639769 ], [ -47.915276, -3.639705 ], [ -47.91401, -3.640069 ], [ -47.912658, -3.640262 ], [ -47.91137, -3.64009 ], [ -47.910384, -3.640369 ], [ -47.908903, -3.640604 ], [ -47.902401, -3.639341 ], [ -47.891844, -3.638998 ], [ -47.89163, -3.639105 ], [ -47.890042, -3.64144 ] ] } }
]
}
